8195,MOLNIYA 2-14,1975,712.67,-1.0,UNK,63.51,Inactive,0,MEO,Russia,Russia/USSR,Unknown,Unknown,Molniya,1 08195U 75081A   24020.61338571  .00000270  00000+0  00000+0 0  9993,2 08195  63.5078 127.7216 6691048 289.7246  12.9337  2.02056280354655,2.0205628,0.6691048,MEO
8601,MOLNIYA 1-32,1976,719.79,-1.0,UNK,63.63,Inactive,0,MEO,Kazakhstan,Russia/USSR,Unknown,Unknown,Molniya,1 08601U 76006A   24018.94570808 -.00000892  00000+0  00000+0 0  9998,2 08601  63.6348 224.7369 6922156 282.9954  13.3898  2.00057926 64272,2.00057926,0.6922156,MEO
18946,MOLNIYA 1-71,1988,717.82,-1.0,UNK,63.15,Inactive,0,MEO,Kazakhstan,Russia/USSR,Unknown,Unknown,Molniya,1 18946U 88017A   24016.09038287 -.00000276  00000+0  92280-3 0  9991,2 18946  63.1476  40.5688 7422804 257.2546  18.2164  2.00607741262645,2.00607741,0.7422804,MEO
19807,MOLNIYA 1-75,1989,718.27,-1.0,UNK,63.83,Inactive,0,MEO,Kazakhstan,Russia/USSR,Unknown,Unknown,Molniya,1 19807U 89014A   24015.82565783  .00000829  00000+0  00000+0 0  9990,2 19807  63.8322 224.9566 6644490 263.1072  23.0782  2.00482012255574,2.00482012,0.664449,MEO
21196,MOLNIYA 3-40,1991,709.32,-1.0,UNK,64.9,Inactive,0,MEO,Russia,Russia/USSR,Unknown,Unknown,Molniya,1 21196U 91022A   24017.13095624 -.00000899  00000+0  00000+0 0  9992,2 21196  64.8960 266.9804 6594581 266.9903  21.7718  2.03012179241404,2.03012179,0.6594581,MEO
21426,MOLNIYA 1-81,1991,717.77,-1.0,UNK,63.67,Inactive,0,MEO,Russia,Russia/USSR,Unknown,Unknown,Molniya,1 21426U 91043A   24018.74296268  .00000057  00000+0  00000+0 0  9991,2 21426  63.6735 272.9006 6926731 264.0032  20.0701  2.00621763238802,2.00621763,0.6926731,MEO
21706,MOLNIYA 3-41,1991,704.63,-1.0,UNK,63.96,Inactive,0,MEO,Russia,Russia/USSR,Unknown,Unknown,Molniya,1 21706U 91065A   24020.23894086 -.00001183  00000+0  00000+0 0  9997,2 21706  63.9558  96.3276 7169185 251.6298  23.6437  2.04363455238759,2.04363455,0.7169185,MEO
13875,MOLNIYA 3-20,1983,717.63,-1.0,UNK,62.11,Inactive,0,MEO,Russia,Russia/USSR,Unknown,Unknown,Molniya,1 13875U 83015A   24017.79600459  .00001587  00000+0  11060-1 0  9994,2 13875  62.1112 262.8546 7255294 264.5872  16.8656  2.00661853235339,2.00661853,0.7255294,MEO
13890,MOLNIYA 1-56,1983,720.17,-1.0,UNK,62.61,Inactive,0,MEO,Russia,Russia/USSR,Unknown,Unknown,Molniya,1 13890U 83019A   24019.73010109 -.00000558  00000+0 -19055-3 0  9991,2 13890  62.6030 285.4362 7338222 269.7534  14.4440  1.99945064298220,1.99945064,0.7338222,MEO
22178,MOLNIYA 3-42,1992,653.26,-1.0,UNK,64.68,Inactive,0,MEO,Russia,Russia/USSR,Unknown,Unknown,Molniya,1 22178U 92067A   24020.37000645  .00000149  00000+0  00000+0 0  9999,2 22178  64.6784 154.5581 6525431 257.4706  27.3293  2.20433803 92881,2.20433803,0.6525431,MEO
22949,MOLNIYA 1-87,1993,709.89,-1.0,UNK,64.75,Inactive,0,MEO,Russia,Russia/USSR,Unknown,Unknown,Molniya,1 22949U 93079A   24020.21992093  .00001015  00000+0  00000+0 0  9992,2 22949  64.7552  23.8687 6976094 279.7371  13.8797  2.02855240 86735,2.0285524,0.6976094,MEO
23420,MOLNIYA 1-88,1994,430.5,-1.0,UNK,64.38,Inactive,0,MEO,Russia,Russia/USSR,Unknown,Unknown,Molniya,1 23420U 94081A   24020.26515339 -.00000064  00000+0  00000+0 0  9994,2 23420  64.3801  66.4135 5877173 272.4708  25.5078  3.34497254133160,3.34497254,0.5877173,MEO
15429,MOLNIYA 1-63,1984,717.53,-1.0,UNK,63.65,Inactive,0,MEO,Russia,Russia/USSR,Unknown,Unknown,Molniya,1 15429U 84124A   24020.47606811  .00001216  00000+0  00000+0 0  9999,2 15429  63.6468 107.2974 6951438 256.5991  86.5017  2.00701314286437,2.00701314,0.6951438,MEO
23642,MOLNIYA 3-47,1995,713.01,-1.0,UNK,64.86,Inactive,0,MEO,Russia,Russia/USSR,Unknown,Unknown,Molniya,1 23642U 95042A   24020.09440352  .00000788  00000+0  00000+0 0  9993,2 23642  64.8625   5.4945 6973913 279.8358  13.8881  2.01964587208761,2.01964587,0.6973913,MEO
7276,MOLNIYA 2-9,1974,587.52,-1.0,UNK,64.28,Inactive,0,MEO,Russia,Russia/USSR,Unknown,Unknown,Molniya,1 07276U 74026A   24019.39279898  .00000150  00000+0  00000+0 0  9996,2 07276  64.2807 148.8343 6396664 273.0816  20.7321  2.45096418263453,2.45096418,0.6396664,MEO
7376,MOLNIYA 2-10,1974,715.79,-1.0,UNK,65.01,Inactive,0,MEO,Russia,Russia/USSR,Unknown,Unknown,Molniya,1 07376U 74056A   24020.14027071  .00000582  00000+0  00000+0 0  9998,2 07376  65.0217  32.9520 6838281 281.1321  14.3994  2.01184773362050,2.01184773,0.6838281,MEO
7392,MOLNIYA 1-S,1974,1435.51,-1.0,UNK,3.63,Inactive,0,GSO,Kazakhstan,Russia/USSR,Unknown,Unknown,Molniya,1 07392U 74060A   24020.48115307 -.00000309  00000+0  00000+0 0  9996,2 07392   3.6322 273.4422 0009249 233.3586 247.4774  1.00312509125360,1.00312509,0.0009249,GSO
15738,MOLNIYA 3-24,1985,563.27,-1.0,UNK,63.08,Inactive,0,MEO,Russia,Russia/USSR,Unknown,Unknown,Molniya,1 15738U 85040A   24019.46144429 -.00000010  00000+0  16881-4 0  9990,2 15738  63.0802 329.1795 6919305 248.3901  28.6825  2.55647923318726,2.55647923,0.6919305,MEO
7780,MOLNIYA 1-29,1975,717.8,-1.0,UNK,63.44,Inactive,0,MEO,Russia,Russia/USSR,Unknown,Unknown,Molniya,1 07780U 75036A   24020.41397706  .00000099  00000+0 -95580-1 0  9994,2 07780  63.4410 154.4839 6706929 285.0678  14.1325  2.00613700357292,2.006137,0.6706929,MEO
